{
  "norad_id": 61057,
  "name": "STARLINK-11231 [DTC]",
  "history": [
    {
      "epoch": "2026-03-28T14:19:42.413952",
      "apogee_km": 360.26237436363135,
      "perigee_km": 359.12233363693394,
      "latitude_deg": -26.414387761097604,
      "longitude_deg": -16.98620671988465,
      "semi_major_axis_km": 6737.829354000282,
      "eccentricity": 8.46e-05,
      "inclination_deg": 53.1578,
      "raan_deg": 218.4153,
      "arg_perigee_deg": 55.8867,
      "mean_anomaly_deg": 304.2231,
      "mean_motion_rev_day": 15.6972202
    }
  ]
}