{"fetched_at":"2026-03-29T16:36:15Z","count":15609,"tles":[{"name":"STARLINK-11231 [DTC]","line1":"1 61057U 24164H   26087.59701868  .00003385  00000+0  32767-4 0  9990","line2":"2 61057  53.1578 218.4153 0000846  55.8867 304.2231 15.69722020 88387","category":"Starlink"}]}